[{"OBJECT_NAME":"TIANMU-1 08","OBJECT_ID":"2023-101B","EPOCH":"2026-03-07T00:03:25.475616","MEAN_MOTION":15.29204229,"ECCENTRICITY":0.00063808,"INCLINATION":97.2717,"RA_OF_ASC_NODE":118.7901,"ARG_OF_PERICENTER":134.2174,"MEAN_ANOMALY":225.9592,"EPHEMERIS_TYPE":0,"CLASSIFICATION_TYPE":"U","NORAD_CAT_ID":57400,"ELEMENT_SET_NO":999,"REV_AT_EPOCH":14602,"BSTAR":1.4774513e-5,"MEAN_MOTION_DOT":3.46e-6,"MEAN_MOTION_DDOT":0},{"OBJECT_NAME":"STARLINK-34792","OBJECT_ID":"2025-167H","EPOCH":"2026-03-09T07:03:26.373600","MEAN_MOTION":15.30187314,"ECCENTRICITY":0.00013155,"INCLINATION":53.1617,"RA_OF_ASC_NODE":28.8965,"ARG_OF_PERICENTER":113.0373,"MEAN_ANOMALY":247.0767,"EPHEMERIS_TYPE":0,"CLASSIFICATION_TYPE":"U","NORAD_CAT_ID":65085,"ELEMENT_SET_NO":999,"REV_AT_EPOCH":3341,"BSTAR":0.0012552619,"MEAN_MOTION_DOT":0.00036989,"MEAN_MOTION_DDOT":0}]
